{
  "norad_id": 41473,
  "name": "YAOGAN-30 01",
  "history": [
    {
      "epoch": "2026-03-28T21:45:09.859968Z",
      "apogee_km": 653.0732626141717,
      "perigee_km": 628.9619050862793,
      "latitude_deg": 3.743710987804461e-05,
      "longitude_deg": -13.106977544992349,
      "height_km": 651.7969488200669,
      "semi_major_axis_km": 7019.154583850225,
      "eccentricity": 0.00171754,
      "inclination_deg": 97.9116,
      "raan_deg": 139.5042,
      "arg_perigee_deg": 130.2728,
      "mean_anomaly_deg": 229.9987,
      "mean_motion_rev_day": 14.76303167
    },
    {
      "epoch": "2026-03-29T04:15:33.861600Z",
      "apogee_km": 653.0762989936266,
      "perigee_km": 628.9500759692146,
      "latitude_deg": 2.949498992332172e-05,
      "longitude_deg": -110.70840251697241,
      "height_km": 651.6708256384122,
      "semi_major_axis_km": 7019.15018748142,
      "eccentricity": 0.0017186,
      "inclination_deg": 97.9116,
      "raan_deg": 139.77,
      "arg_perigee_deg": 129.493,
      "mean_anomaly_deg": 230.7803,
      "mean_motion_rev_day": 14.76304554
    },
    {
      "epoch": "2026-03-30T04:39:33.966432Z",
      "apogee_km": 653.0986891062457,
      "perigee_km": 628.9149310230496,
      "latitude_deg": 6.793181118836376e-06,
      "longitude_deg": -116.71520912570756,
      "height_km": 651.1640078785555,
      "semi_major_axis_km": 7019.143810064647,
      "eccentricity": 0.0017227,
      "inclination_deg": 97.9115,
      "raan_deg": 140.7657,
      "arg_perigee_deg": 126.3888,
      "mean_anomaly_deg": 233.8914,
      "mean_motion_rev_day": 14.76306566
    },
    {
      "epoch": "2026-03-30T06:17:09.976128Z",
      "apogee_km": 653.0995434277038,
      "perigee_km": 628.914380991514,
      "latitude_deg": 4.009304576796737e-05,
      "longitude_deg": -141.11555898671094,
      "height_km": 651.1261524943209,
      "semi_major_axis_km": 7019.143962209609,
      "eccentricity": 0.0017228,
      "inclination_deg": 97.9115,
      "raan_deg": 140.8322,
      "arg_perigee_deg": 126.1639,
      "mean_anomaly_deg": 234.1168,
      "mean_motion_rev_day": 14.76306518
    },
    {
      "epoch": "2026-03-30T14:25:09.957216Z",
      "apogee_km": 653.0945943918287,
      "perigee_km": 628.9090285546872,
      "latitude_deg": 4.757916397551933e-06,
      "longitude_deg": 96.88240117356621,
      "height_km": 650.9289029617793,
      "semi_major_axis_km": 7019.138811473257,
      "eccentricity": 0.00172283,
      "inclination_deg": 97.9114,
      "raan_deg": 141.1641,
      "arg_perigee_deg": 125.0478,
      "mean_anomaly_deg": 235.2351,
      "mean_motion_rev_day": 14.76308143
    },
    {
      "epoch": "2026-03-30T22:33:10.043712Z",
      "apogee_km": 653.1243137124602,
      "perigee_km": 628.8873538902008,
      "latitude_deg": 2.133671626332434e-05,
      "longitude_deg": -25.120186243885072,
      "height_km": 650.7739332018193,
      "semi_major_axis_km": 7019.14283380133,
      "eccentricity": 0.00172649,
      "inclination_deg": 97.9114,
      "raan_deg": 141.4959,
      "arg_perigee_deg": 124.0546,
      "mean_anomaly_deg": 236.2306,
      "mean_motion_rev_day": 14.76306874
    },
    {
      "epoch": "2026-03-31T21:19:33.995424Z",
      "apogee_km": 653.1676180244958,
      "perigee_km": 628.8350730358807,
      "latitude_deg": -9.90532007653476e-06,
      "longitude_deg": -6.725846424581456,
      "height_km": 650.2974711871051,
      "semi_major_axis_km": 7019.138345530188,
      "eccentricity": 0.0017333,
      "inclination_deg": 97.911,
      "raan_deg": 142.4253,
      "arg_perigee_deg": 121.2748,
      "mean_anomaly_deg": 239.0162,
      "mean_motion_rev_day": 14.7630829
    },
    {
      "epoch": "2026-04-01T20:05:57.802848Z",
      "apogee_km": 653.1803562703763,
      "perigee_km": 628.8071266836705,
      "latitude_deg": 1.0981655028042077e-05,
      "longitude_deg": 11.669088908002632,
      "height_km": 649.7743179332651,
      "semi_major_axis_km": 7019.130741477023,
      "eccentricity": 0.0017362,
      "inclination_deg": 97.9106,
      "raan_deg": 143.3547,
      "arg_perigee_deg": 118.4319,
      "mean_anomaly_deg": 241.8643,
      "mean_motion_rev_day": 14.76310689
    },
    {
      "epoch": "2026-04-02T20:29:57.410880Z",
      "apogee_km": 653.2261992640924,
      "perigee_km": 628.7421008684305,
      "latitude_deg": 9.616910352762982e-06,
      "longitude_deg": 5.664355172060043,
      "height_km": 649.2196246285857,
      "semi_major_axis_km": 7019.121150066261,
      "eccentricity": 0.0017441,
      "inclination_deg": 97.9103,
      "raan_deg": 144.3504,
      "arg_perigee_deg": 115.4411,
      "mean_anomaly_deg": 244.8606,
      "mean_motion_rev_day": 14.76313715
    },
    {
      "epoch": "2026-04-02T23:45:09.354240Z",
      "apogee_km": 653.2308974098896,
      "perigee_km": 628.7366927186013,
      "latitude_deg": -1.9460274913046602e-05,
      "longitude_deg": -43.136413721304514,
      "height_km": 649.1488545794313,
      "semi_major_axis_km": 7019.120795064245,
      "eccentricity": 0.00174482,
      "inclination_deg": 97.9102,
      "raan_deg": 144.483,
      "arg_perigee_deg": 115.0667,
      "mean_anomaly_deg": 245.2356,
      "mean_motion_rev_day": 14.76313827
    },
    {
      "epoch": "2026-04-03T20:53:56.915232Z",
      "apogee_km": 653.2319179209653,
      "perigee_km": 628.7239761718592,
      "latitude_deg": -6.337277170391151e-05,
      "longitude_deg": -0.3400362439119489,
      "height_km": 648.6201545238022,
      "semi_major_axis_km": 7019.114947046412,
      "eccentricity": 0.0017458,
      "inclination_deg": 97.9099,
      "raan_deg": 145.346,
      "arg_perigee_deg": 112.388,
      "mean_anomaly_deg": 247.9181,
      "mean_motion_rev_day": 14.76315672
    },
    {
      "epoch": "2026-04-04T06:39:32.643360Z",
      "apogee_km": 653.2290105157244,
      "perigee_km": 628.7179958741481,
      "latitude_deg": 3.062467351960667e-05,
      "longitude_deg": -146.7412425620726,
      "height_km": 648.3715276710918,
      "semi_major_axis_km": 7019.110503194936,
      "eccentricity": 0.00174602,
      "inclination_deg": 97.9098,
      "raan_deg": 145.7445,
      "arg_perigee_deg": 111.1588,
      "mean_anomaly_deg": 249.149,
      "mean_motion_rev_day": 14.76317074
    },
    {
      "epoch": "2026-04-05T15:11:31.560288Z",
      "apogee_km": 653.2424261579035,
      "perigee_km": 628.6730676695961,
      "latitude_deg": -4.2103843374483816e-05,
      "longitude_deg": 85.25459429856144,
      "height_km": 647.5410041405418,
      "semi_major_axis_km": 7019.09474691375,
      "eccentricity": 0.00175018,
      "inclination_deg": 97.9091,
      "raan_deg": 147.0719,
      "arg_perigee_deg": 107.0928,
      "mean_anomaly_deg": 253.22,
      "mean_motion_rev_day": 14.76322045
    },
    {
      "epoch": "2026-04-05T20:04:19.418304Z",
      "apogee_km": 653.2461330458236,
      "perigee_km": 628.6708758656232,
      "latitude_deg": 7.597608022223277e-05,
      "longitude_deg": 12.053756360234438,
      "height_km": 647.4329780929532,
      "semi_major_axis_km": 7019.095504455723,
      "eccentricity": 0.0017506,
      "inclination_deg": 97.9091,
      "raan_deg": 147.2709,
      "arg_perigee_deg": 106.5599,
      "mean_anomaly_deg": 253.7536,
      "mean_motion_rev_day": 14.76321806
    },
    {
      "epoch": "2026-04-06T07:27:30.915072Z",
      "apogee_km": 653.2697762840762,
      "perigee_km": 628.6333369773874,
      "latitude_deg": 4.488082847007407e-05,
      "longitude_deg": -158.74687164998326,
      "height_km": 647.1625055787781,
      "semi_major_axis_km": 7019.088556630732,
      "eccentricity": 0.00175496,
      "inclination_deg": 97.909,
      "raan_deg": 147.7358,
      "arg_perigee_deg": 105.2462,
      "mean_anomaly_deg": 255.069,
      "mean_motion_rev_day": 14.76323998
    },
    {
      "epoch": "2026-04-07T14:21:53.627040Z",
      "apogee_km": 653.2729704259018,
      "perigee_km": 628.6233471652431,
      "latitude_deg": 1.4671658019291228e-06,
      "longitude_deg": 97.65042067942166,
      "height_km": 646.3351690608248,
      "semi_major_axis_km": 7019.085158795572,
      "eccentricity": 0.0017559,
      "inclination_deg": 97.9087,
      "raan_deg": 148.997,
      "arg_perigee_deg": 101.3076,
      "mean_anomaly_deg": 259.0108,
      "mean_motion_rev_day": 14.7632507
    },
    {
      "epoch": "2026-04-07T20:52:17.441184Z",
      "apogee_km": 653.2801562636787,
      "perigee_km": 628.6277050969438,
      "latitude_deg": 3.412331366070878e-05,
      "longitude_deg": 0.04937258803342461,
      "height_km": 646.1650173756076,
      "semi_major_axis_km": 7019.090930680311,
      "eccentricity": 0.0017561,
      "inclination_deg": 97.9087,
      "raan_deg": 149.2624,
      "arg_perigee_deg": 100.4747,
      "mean_anomaly_deg": 259.8443,
      "mean_motion_rev_day": 14.76323249
    },
    {
      "epoch": "2026-04-08T14:45:52.610400Z",
      "apogee_km": 653.2778167227598,
      "perigee_km": 628.6211696894243,
      "latitude_deg": -4.227665139709726e-05,
      "longitude_deg": 91.64829885120292,
      "height_km": 645.6912590521341,
      "semi_major_axis_km": 7019.086493206091,
      "eccentricity": 0.0017564,
      "inclination_deg": 97.9086,
      "raan_deg": 149.9927,
      "arg_perigee_deg": 98.2645,
      "mean_anomaly_deg": 262.0557,
      "mean_motion_rev_day": 14.76324649
    },
    {
      "epoch": "2026-04-09T20:02:39.233184Z",
      "apogee_km": 653.2866505640704,
      "perigee_km": 628.603346807492,
      "latitude_deg": 5.509759281596665e-05,
      "longitude_deg": 12.446249019855482,
      "height_km": 644.920137145129,
      "semi_major_axis_km": 7019.0819986857805,
      "eccentricity": 0.0017583,
      "inclination_deg": 97.9086,
      "raan_deg": 151.1874,
      "arg_perigee_deg": 94.6766,
      "mean_anomaly_deg": 265.6453,
      "mean_motion_rev_day": 14.76326067
    }
  ]
}